NORAD_CAT_ID,OBJECT_NAME,OBJECT_TYPE,EPOCH,MEAN_MOTION,ECCENTRICITY,INCLINATION,RA_OF_ASC_NODE,ARG_OF_PERICENTER,MEAN_ANOMALY,BSTAR,MEAN_MOTION_DOT,MEAN_MOTION_DDOT,TLE_LINE0,TLE_LINE1,TLE_LINE2,SEMIMAJOR_AXIS,PERIOD,APOGEE,PERIGEE,DECAYED
52369.0,STARLINK-3841,PAYLOAD,2024-04-21 22:26:12,15.08837309,0.0001268,53.2185,32.0798,85.2231,274.8906,-2.2616e-05,-6.48e-06,0.0,0 STARLINK-3841,1 52369U 22045AQ  24112.93486932 -.00000648  00000-0 -22616-4 0  9993,2 52369  53.2185  32.0798 0001268  85.2231 274.8906 15.08837309112248,6917.889,95.438,540.631,538.876,0.0
52369.0,STARLINK-3841,PAYLOAD,2024-04-22 04:47:44,15.08847472,0.0001429,53.2186,30.886,91.3989,268.7167,0.00025269,3.737e-05,0.0,0 STARLINK-3841,1 52369U 22045AQ  24113.19982474  .00003737  00000-0  25269-3 0  9990,2 52369  53.2186  30.8860 0001429  91.3989 268.7167 15.08847472112289,6917.858,95.437,540.711,538.734,0.0
52369.0,STARLINK-3841,PAYLOAD,2024-04-22 17:30:50,15.08836705,0.000199,53.218,28.5048,148.4408,211.6704,0.00011882,1.603e-05,0.0,0 STARLINK-3841,1 52369U 22045AQ  24113.72974810  .00001603  00000-0  11882-3 0  9990,2 52369  53.2180  28.5048 0001990 148.4408 211.6704 15.08836705112368,6917.89,95.438,541.132,538.379,0.0
52369.0,STARLINK-3841,PAYLOAD,2024-04-22 22:16:59,15.08837173,0.000163,53.218,27.6134,120.1985,239.9168,0.00017848,2.553e-05,0.0,0 STARLINK-3841,1 52369U 22045AQ  24113.92847029  .00002553  00000-0  17848-3 0  9996,2 52369  53.2180  27.6134 0001630 120.1985 239.9168 15.08837173112392,6917.889,95.438,540.882,538.626,0.0
52369.0,STARLINK-3841,PAYLOAD,2024-04-22 23:52:23,15.08835351,0.0001388,53.2182,27.3182,111.9916,248.1224,0.00010823,1.435e-05,0.0,0 STARLINK-3841,1 52369U 22045AQ  24113.99471098  .00001435  00000-0  10823-3 0  9996,2 52369  53.2182  27.3182 0001388 111.9916 248.1224 15.08835351112409,6917.895,95.438,540.72,538.799,0.0
52369.0,STARLINK-3841,PAYLOAD,2024-04-23 22:07:48,15.08819957,0.0001894,53.2185,23.1558,126.9259,233.1906,-0.00036606,-6.106e-05,0.0,0 STARLINK-3841,1 52369U 22045AQ  24114.92208427 -.00006106  00000-0 -36606-3 0  9993,2 52369  53.2185  23.1558 0001894 126.9259 233.1906 15.08819957112541,6917.942,95.439,541.117,538.496,0.0
52369.0,STARLINK-3841,PAYLOAD,2024-04-24 01:18:35,15.08826309,0.0001271,53.219,22.5656,85.2352,274.8785,-4.9893e-05,-1.081e-05,0.0,0 STARLINK-3841,1 52369U 22045AQ  24115.05457393 -.00001081  00000-0 -49893-4 0  9996,2 52369  53.2190  22.5656 0001271  85.2352 274.8785 15.08826309112567,6917.922,95.438,540.667,538.908,0.0
52369.0,STARLINK-3841,PAYLOAD,2024-04-24 21:58:35,15.08834791,0.0001255,53.2189,18.7036,112.6972,247.4153,0.00027656,4.116e-05,0.0,0 STARLINK-3841,1 52369U 22045AQ  24115.91568357  .00004116  00000-0  27656-3 0  9996,2 52369  53.2189  18.7036 0001255 112.6972 247.4153 15.08834791112692,6917.896,95.438,540.63,538.893,0.0
52369.0,STARLINK-3841,PAYLOAD,2024-04-25 02:44:44,15.08854138,0.0001407,53.2182,17.81,145.0256,215.0829,0.00055199,8.511e-05,0.0,0 STARLINK-3841,1 52369U 22045AQ  24116.11439830  .00008511  00000-0  55199-3 0  9998,2 52369  53.2182  17.8100 0001407 145.0256 215.0829 15.08854138112723,6917.837,95.437,540.676,538.729,0.0
52369.0,STARLINK-3841,PAYLOAD,2024-04-25 21:49:21,15.08851793,0.0001417,53.2204,14.2258,82.703,277.4124,0.00031924,4.798e-05,0.0,0 STARLINK-3841,1 52369U 22045AQ  24116.90927984  .00004798  00000-0  31924-3 0  9990,2 52369  53.2204  14.2258 0001417  82.7030 277.4124 15.08851793112848,6917.844,95.437,540.69,538.729,0.0
52369.0,STARLINK-3841,PAYLOAD,2024-04-25 23:24:44,15.08851531,0.0001293,53.2208,13.9285,96.0021,264.1119,0.00029672,4.439e-05,0.0,0 STARLINK-3841,1 52369U 22045AQ  24116.97551858  .00004439  00000-0  29672-3 0  9999,2 52369  53.2208  13.9285 0001293  96.0021 264.1119 15.08851531112856,6917.845,95.437,540.605,538.816,0.0
52369.0,STARLINK-3841,PAYLOAD,2024-04-26 10:32:25,15.08857454,0.0001114,53.2197,11.8548,102.64,257.4717,0.00018066,2.59e-05,0.0,0 STARLINK-3841,1 52369U 22045AQ  24117.43918784  .00002590  00000-0  18066-3 0  9997,2 52369  53.2197  11.8548 0001114 102.6400 257.4717 15.08857454112926,6917.827,95.436,540.463,538.921,0.0
52369.0,STARLINK-3841,PAYLOAD,2024-04-26 23:15:31,15.0884526,0.0001402,53.2182,9.4801,104.5103,255.6044,-0.00017282,-3.038e-05,0.0,0 STARLINK-3841,1 52369U 22045AQ  24117.96911409 -.00003038  00000-0 -17282-3 0  9991,2 52369  53.2182   9.4801 0001402 104.5103 255.6044 15.08845260113001,6917.864,95.437,540.699,538.759,0.0
52369.0,STARLINK-3841,PAYLOAD,2024-04-27 19:55:32,15.08828714,0.0001104,53.2188,5.616,103.007,257.1046,-0.00030206,-5.09e-05,0.0,0 STARLINK-3841,1 52369U 22045AQ  24118.83023917 -.00005090  00000-0 -30206-3 0  9997,2 52369  53.2188   5.6160 0001104 103.0070 257.1046 15.08828714113137,6917.915,95.438,540.544,539.016,0.0
52369.0,STARLINK-3841,PAYLOAD,2024-04-27 21:30:56,15.08832484,0.0001201,53.2194,5.3173,110.843,249.2691,-0.00014841,-2.648e-05,0.0,0 STARLINK-3841,1 52369U 22045AQ  24118.89648491 -.00002648  00000-0 -14841-3 0  9996,2 52369  53.2194   5.3173 0001201 110.8430 249.2691 15.08832484113147,6917.903,95.438,540.599,538.938,0.0
52369.0,STARLINK-3841,PAYLOAD,2024-04-28 02:17:05,15.08839981,9.6e-05,53.218,4.4277,120.151,239.9578,-5.5499e-05,-1.171e-05,0.0,0 STARLINK-3841,1 52369U 22045AQ  24119.09519902 -.00001171  00000-0 -55499-4 0  9998,2 52369  53.2180   4.4277 0000960 120.1510 239.9578 15.08839981113173,6917.88,95.438,540.41,539.081,0.0
52369.0,STARLINK-3841,PAYLOAD,2024-04-28 22:57:06,15.08834062,0.0001315,53.2188,0.5592,98.2643,261.8498,0.00011546,1.55e-05,0.0,0 STARLINK-3841,1 52369U 22045AQ  24119.95632250  .00001550  00000-0  11546-3 0  9998,2 52369  53.2188   0.5592 0001315  98.2643 261.8498 15.08834062113300,6917.899,95.438,540.673,538.854,0.0
52369.0,STARLINK-3841,PAYLOAD,2024-04-29 08:29:23,15.08853656,0.0001265,53.2196,358.7757,134.8709,225.2387,1.7673e-05,-7e-08,0.0,0 STARLINK-3841,1 52369U 22045AQ  24120.35374927 -.00000007  00000-0  17673-4 0  9993,2 52369  53.2196 358.7757 0001265 134.8709 225.2387 15.08853656113361,6917.839,95.437,540.579,538.829,0.0
52369.0,STARLINK-3841,PAYLOAD,2024-04-29 21:12:30,15.08826545,0.0001375,53.2207,356.4045,116.9196,243.1937,0.00023897,3.516e-05,0.0,0 STARLINK-3841,1 52369U 22045AQ  24120.88368715  .00003516  00000-0  23897-3 0  9990,2 52369  53.2207 356.4045 0001375 116.9196 243.1937 15.08826545113448,6917.922,95.438,540.738,538.835,0.0
52369.0,STARLINK-3841,PAYLOAD,2024-04-29 22:47:53,15.0882653,0.0001545,53.2206,356.1052,117.9936,242.1213,0.0002017,2.922e-05,0.0,0 STARLINK-3841,1 52369U 22045AQ  24120.94992832  .00002922  00000-0  20170-3 0  9991,2 52369  53.2206 356.1052 0001545 117.9936 242.1213 15.08826530113455,6917.922,95.438,540.855,538.718,0.0
52369.0,STARLINK-3841,PAYLOAD,2024-04-30 08:20:11,15.08843083,0.0001357,53.2203,354.3181,105.0098,255.1044,0.00018476,2.654e-05,0.0,0 STARLINK-3841,1 52369U 22045AQ  24121.34735824  .00002654  00000-0  18476-3 0  9990,2 52369  53.2203 354.3181 0001357 105.0098 255.1044 15.08843083113518,6917.871,95.437,540.675,538.797,0.0
52369.0,STARLINK-3841,PAYLOAD,2024-04-30 21:03:17,15.08838452,0.0001497,53.2211,351.9409,110.925,249.1903,6.0107e-05,6.69e-06,0.0,0 STARLINK-3841,1 52369U 22045AQ  24121.87728572  .00000669  00000-0  60107-4 0  9993,2 52369  53.2211 351.9409 0001497 110.9250 249.1903 15.08838452113592,6917.885,95.438,540.786,538.715,0.0
52369.0,STARLINK-3841,PAYLOAD,2024-04-30 22:38:40,15.08839744,0.0001567,53.2211,351.6445,114.1017,246.0139,7.2353e-05,8.64e-06,0.0,0 STARLINK-3841,1 52369U 22045AQ  24121.94352446  .00000864  00000-0  72353-4 0  9997,2 52369  53.2211 351.6445 0001567 114.1017 246.0139 15.08839744113608,6917.881,95.438,540.83,538.662,0.0
52369.0,STARLINK-3841,PAYLOAD,2024-05-01 08:10:58,15.08853832,0.0001122,53.2193,349.8575,95.3338,264.7782,0.00012288,1.669e-05,0.0,0 STARLINK-3841,1 52369U 22045AQ  24122.34095265  .00001669  00000-0  12288-3 0  9999,2 52369  53.2193 349.8575 0001122  95.3338 264.7782 15.08853832113664,6917.838,95.437,540.479,538.927,0.0
52369.0,STARLINK-3841,PAYLOAD,2024-05-02 00:04:50,15.08835136,0.0001131,53.219,346.8841,90.0812,270.031,-1.0809e-05,-4.6e-06,0.0,0 STARLINK-3841,1 52369U 22045AQ  24123.00336761 -.00000460  00000-0 -10809-4 0  9990,2 52369  53.2190 346.8841 0001131  90.0812 270.0310 15.08835136113768,6917.895,95.438,540.543,538.978,0.0
52369.0,STARLINK-3841,PAYLOAD,2024-05-02 08:01:46,15.08834037,0.0002097,53.2189,345.3974,84.6808,275.4424,1.0743e-05,-1.17e-06,0.0,0 STARLINK-3841,1 52369U 22045AQ  24123.33457170 -.00000117  00000-0  10743-4 0  9999,2 52369  53.2189 345.3974 0002097  84.6808 275.4424 15.08834037113813,6917.899,95.438,541.214,538.313,0.0
52369.0,STARLINK-3841,PAYLOAD,2024-05-02 20:44:51,15.08842769,0.0001051,53.2186,343.0171,83.7835,276.3277,4.4963e-05,4.28e-06,0.0,0 STARLINK-3841,1 52369U 22045AQ  24123.86448112  .00000428  00000-0  44963-4 0  9998,2 52369  53.2186 343.0171 0001051  83.7835 276.3277 15.08842769113898,6917.872,95.437,540.464,539.01,0.0
52369.0,STARLINK-3841,PAYLOAD,2024-05-02 23:55:36,15.0885226,0.0001037,53.2175,342.4205,76.7904,283.3204,9.9693e-05,1.3e-05,0.0,0 STARLINK-3841,1 52369U 22045AQ  24123.99695221  .00001300  00000-0  99693-4 0  9997,2 52369  53.2175 342.4205 0001037  76.7904 283.3204 15.08852260113918,6917.843,95.437,540.425,538.991,0.0
52369.0,STARLINK-3841,PAYLOAD,2024-05-03 07:52:31,15.08856037,0.0001119,53.2172,340.935,79.8362,280.2757,0.00016595,2.355e-05,0.0,0 STARLINK-3841,1 52369U 22045AQ  24124.32814744  .00002355  00000-0  16595-3 0  9998,2 52369  53.2172 340.9350 0001119  79.8362 280.2757 15.08856037113962,6917.831,95.437,540.47,538.922,0.0
52369.0,STARLINK-3841,PAYLOAD,2024-05-03 20:35:38,15.08840989,0.0001097,53.2166,338.5554,88.9662,271.1456,2.7148e-05,1.44e-06,0.0,0 STARLINK-3841,1 52369U 22045AQ  24124.85807955  .00000144  00000-0  27148-4 0  9993,2 52369  53.2166 338.5554 0001097  88.9662 271.1456 15.08840989114047,6917.877,95.437,540.501,538.983,0.0
